IRIDIUM 171             
1 43929U 19002H   25274.94804188  .00000014  00000+0 -20020-5 0  9995
2 43929  86.3924 101.8244 0001937  79.4741 280.6673 14.34217761351943
IRIDIUM 170             
1 43930U 19002J   25274.88787997 -.00000633  00000+0 -10430-3 0  9998
2 43930  86.6035 101.5804 0002402  85.5267 274.6225 14.72254471361251
IRIDIUM 167             
1 43931U 19002K   25274.94169971  .00000006  00000+0 -49747-5 0  9990
2 43931  86.3915 101.5694 0002168  77.2675 282.8763 14.34217740351942
IRIDIUM 181             
1 56726U 23068S   25274.78516013  .00000896  00000+0  26037-3 0  9999
2 56726  86.4568 164.7648 0001775  72.3680 287.7714 14.43290289125160
IRIDIUM 177             
1 56727U 23068T   25274.94923412  .00001289  00000+0  16608-3 0  9993
2 56727  86.1912  91.4339 0002213  83.6265 276.5209 14.80235654128160
IRIDIUM 174             
1 56728U 23068U   25274.94346099  .00000921  00000+0  14212-3 0  9995
2 56728  86.6045 101.6783 0002493  95.7725 264.3776 14.72268839128026
IRIDIUM 178             
1 56729U 23068V   25274.87073267  .00003811  00000+0  49802-3 0  9996
2 56729  86.6546 133.3343 0002638  80.4960 279.6560 14.80236124128155
IRIDIUM 179             
1 56730U 23068W   25274.66256853  .00003431  00000+0  44782-3 0  9999
2 56730  86.6805 141.6191 0002708  71.7319 288.4197 14.80247609128128
